NORAD_CAT_ID,OBJECT_NAME,OBJECT_TYPE,EPOCH,MEAN_MOTION,ECCENTRICITY,INCLINATION,RA_OF_ASC_NODE,ARG_OF_PERICENTER,MEAN_ANOMALY,BSTAR,MEAN_MOTION_DOT,MEAN_MOTION_DDOT,TLE_LINE0,TLE_LINE1,TLE_LINE2,SEMIMAJOR_AXIS,PERIOD,APOGEE,PERIGEE,DECAYED
55641.0,STARLINK-5065,PAYLOAD,2023-02-22 16:00:00,15.94605177,0.0037727,70.0,136.7835,163.283,236.8383,-0.002669,-0.01089569,0.00036362,0 STARLINK-5065,1 55641U 23021P   23053.66667824 -.01089569  36362-3 -26690-2 0  9995,2 55641  70.0000 136.7835 0037727 163.2830 236.8383 15.94605177  1304,6667.552,90.304,314.571,264.262,0.0
55641.0,STARLINK-5065,PAYLOAD,2023-02-22 22:00:00,15.94105186,0.0034351,69.9996,136.0544,163.3977,231.1644,-0.0029118,-0.01142139,0.00039462,0 STARLINK-5065,1 55641U 23021P   23053.91667824 -.01142139  39462-3 -29118-2 0  9998,2 55641  69.9996 136.0544 0034351 163.3977 231.1644 15.94105186  1301,6668.946,90.333,313.719,267.902,0.0
55641.0,STARLINK-5065,PAYLOAD,2023-02-23 08:00:01,15.93194023,0.0029886,69.9999,134.8416,165.1961,99.0766,-0.002978,-0.01096975,0.00036291,0 STARLINK-5065,1 55641U 23021P   23054.33334491 -.01096975  36291-3 -29780-2 0  9994,2 55641  69.9999 134.8416 0029886 165.1961  99.0766 15.93194023  1402,6671.488,90.384,313.292,273.415,0.0
55641.0,STARLINK-5065,PAYLOAD,2023-02-23 14:00:01,15.92673491,0.0027429,69.9999,134.114,166.1428,91.3075,-0.003123,-0.01111298,0.00036976,0 STARLINK-5065,1 55641U 23021P   23054.58334491 -.01111298  36976-3 -31230-2 0  9990,2 55641  69.9999 134.1140 0027429 166.1428  91.3075 15.92673491  1306,6672.942,90.414,313.11,276.504,0.0
55641.0,STARLINK-5065,PAYLOAD,2023-02-23 16:00:00,15.92491365,0.0026558,70.0,133.8719,166.9016,208.173,-0.0031356,-0.01102693,0.00036382,0 STARLINK-5065,1 55641U 23021P   23054.66667824 -.01102693  36382-3 -31356-2 0  9997,2 55641  70.0000 133.8719 0026558 166.9016 208.1730 15.92491365  1453,6673.451,90.424,313.039,277.592,0.0
55641.0,STARLINK-5065,PAYLOAD,2023-02-23 22:00:00,15.91981755,0.0023625,69.9997,133.1452,168.2862,199.3274,-0.0033548,-0.01140323,0.00038511,0 STARLINK-5065,1 55641U 23021P   23054.91667824 -.01140323  38511-3 -33548-2 0  9998,2 55641  69.9997 133.1452 0023625 168.2862 199.3274 15.91981755  1302,6674.875,90.453,312.509,280.97,0.0
55641.0,STARLINK-5065,PAYLOAD,2023-02-24 02:00:01,15.91596874,0.0022486,69.9999,132.6614,169.5162,72.8766,-0.0032521,-0.01081305,0.00034777,0 STARLINK-5065,1 55641U 23021P   23055.08334491 -.01081305  34777-3 -32521-2 0  9992,2 55641  69.9999 132.6614 0022486 169.5162  72.8766 15.91596874  1528,6675.951,90.475,312.827,282.804,0.0
55641.0,STARLINK-5065,PAYLOAD,2023-02-24 08:00:01,15.91072029,0.0019725,70.0001,131.936,172.2649,61.8781,-0.0033874,-0.01090149,0.00035121,0 STARLINK-5065,1 55641U 23021P   23055.33334491 -.01090149  35121-3 -33874-2 0  9992,2 55641  70.0001 131.9360 0019725 172.2649  61.8781 15.91072029  1568,6677.419,90.505,312.455,286.113,0.0
55641.0,STARLINK-5065,PAYLOAD,2023-02-24 14:00:01,15.90548665,0.0017449,70.0,131.2111,175.0491,50.3665,-0.0035259,-0.01100316,0.00035545,0 STARLINK-5065,1 55641U 23021P   23055.58334491 -.01100316  35545-3 -35259-2 0  9996,2 55641  70.0000 131.2111 0017449 175.0491  50.3665 15.90548665  1300,6678.883,90.535,312.402,289.094,0.0
55641.0,STARLINK-5065,PAYLOAD,2023-02-24 18:00:00,15.90180015,0.0016056,69.9997,130.7286,177.9009,281.4404,-0.0035108,-0.01073167,0.00033819,0 STARLINK-5065,1 55641U 23021P   23055.75001157 -.01073167  33819-3 -35108-2 0  9993,2 55641  69.9997 130.7286 0016056 177.9009 281.4404 15.90180015  1633,6679.916,90.556,312.506,291.055,0.0
55641.0,STARLINK-5065,PAYLOAD,2023-02-24 22:00:00,15.89872294,0.0014233,69.9997,130.2454,181.6801,151.3503,-0.0038652,-0.01159575,0.00038905,0 STARLINK-5065,1 55641U 23021P   23055.91667824 -.01159575  38905-3 -38652-2 0  9996,2 55641  69.9997 130.2454 0014233 181.6801 151.3503 15.89872294  1306,6680.778,90.573,312.151,293.134,0.0
55641.0,STARLINK-5065,PAYLOAD,2023-02-25 02:00:01,15.89471019,0.0013134,70.0002,129.7632,185.2339,21.3108,-0.0036375,-0.01068688,0.00033328,0 STARLINK-5065,1 55641U 23021P   23056.08334491 -.01068688  33328-3 -36375-2 0  9994,2 55641  70.0002 129.7632 0013134 185.2339  21.3108 15.89471019  1680,6681.902,90.596,312.543,294.991,0.0
55641.0,STARLINK-5065,PAYLOAD,2023-02-25 08:00:01,15.88942728,0.0011036,70.0001,129.04,194.19,2.2,-0.0037561,-0.01072256,0.00033363,0 STARLINK-5065,1 55641U 23021P   23056.33334491 -.01072256  33363-3 -37561-2 0  9995,2 55641  70.0001 129.0400 0011036 194.1900   2.2000 15.88942728  1720,6683.383,90.626,312.624,297.872,0.0
55641.0,STARLINK-5065,PAYLOAD,2023-02-25 14:00:01,15.88421387,0.0009707,69.9998,128.3175,204.1838,341.5704,-0.0039048,-0.01084732,0.00033914,0 STARLINK-5065,1 55641U 23021P   23056.58334491 -.01084732  33914-3 -39048-2 0  9998,2 55641  69.9998 128.3175 0009707 204.1838 341.5704 15.88421387  1764,6684.845,90.656,313.199,300.221,0.0
55641.0,STARLINK-5065,PAYLOAD,2023-02-25 22:00:00,15.8775128,0.0008386,69.9995,127.3541,224.0488,66.7757,-0.00431,-0.01037093,0.0,0 STARLINK-5065,1 55641U 23021P   23056.91667824 -.01037093  00000-0 -43100-2 0  9993,2 55641  69.9995 127.3541 0008386 224.0488  66.7757 15.87751280  1818,6686.726,90.694,314.198,302.984,0.0
55641.0,STARLINK-5065,PAYLOAD,2023-02-26 06:00:00,15.87045399,0.0008607,69.9995,126.393,245.2816,149.7782,-0.0044597,-0.01036445,0.0,0 STARLINK-5065,1 55641U 23021P   23057.25001157 -.01036445  00000-0 -44597-2 0  9993,2 55641  69.9995 126.3930 0008607 245.2816 149.7782 15.87045399  1878,6688.709,90.735,316.331,304.817,0.0
55641.0,STARLINK-5065,PAYLOAD,2023-02-26 14:00:01,15.86302136,0.0009164,69.9997,125.4325,261.1812,237.2826,-0.0043497,-0.00981249,0.0,0 STARLINK-5065,1 55641U 23021P   23057.58334491 -.00981249  00000-0 -43497-2 0  9997,2 55641  69.9997 125.4325 0009164 261.1812 237.2826 15.86302136  1304,6690.798,90.777,318.794,306.531,0.0
55641.0,STARLINK-5065,PAYLOAD,2023-02-26 22:00:00,15.85592614,0.0008164,69.9996,124.4726,269.3616,331.6457,-0.0044922,-0.00978089,0.0,0 STARLINK-5065,1 55641U 23021P   23057.91667824 -.00978089  00000-0 -44922-2 0  9995,2 55641  69.9996 124.4726 0008164 269.3616 331.6457 15.85592614  1971,6692.794,90.818,320.123,309.195,0.0
55641.0,STARLINK-5065,PAYLOAD,2023-02-27 14:00:01,15.84190292,0.0007647,69.9999,122.5563,271.9537,171.5901,-0.0049095,-0.00996244,0.0,0 STARLINK-5065,1 55641U 23021P   23058.58334491 -.00996244  00000-0 -49095-2 0  9999,2 55641  69.9999 122.5563 0007647 271.9537 171.5901 15.84190292  2081,6696.743,90.898,323.729,313.487,0.0
55641.0,STARLINK-5065,PAYLOAD,2023-02-27 22:00:01,15.83544482,0.0003986,70.0002,121.5991,281.2974,262.2814,-0.0055158,-0.0107213,0.0,0 STARLINK-5065,1 55641U 23021P   23058.91668981 -.01072130  00000-0 -55158-2 0  9997,2 55641  70.0002 121.5991 0003986 281.2974 262.2814 15.83544482  1302,6698.563,90.935,323.098,317.758,0.0
55641.0,STARLINK-5065,PAYLOAD,2023-02-28 14:00:01,15.82058371,0.0003674,70.0001,119.6898,271.261,109.7418,-0.0053167,-0.00974351,0.0,0 STARLINK-5065,1 55641U 23021P   23059.58334491 -.00974351  00000-0 -53167-2 0  9990,2 55641  70.0001 119.6898 0003674 271.2610 109.7418 15.82058371  1306,6702.757,91.021,327.085,322.16,0.0
55641.0,STARLINK-5065,PAYLOAD,2023-02-28 16:00:00,15.81881912,0.0003511,69.9997,119.4515,272.0034,223.4426,-0.0053606,-0.00974218,0.0,0 STARLINK-5065,1 55641U 23021P   23059.66667824 -.00974218  00000-0 -53606-2 0  9998,2 55641  69.9997 119.4515 0003511 272.0034 223.4426 15.81881912  2252,6703.256,91.031,327.474,322.767,0.0
55641.0,STARLINK-5065,PAYLOAD,2023-02-28 22:00:00,15.81378305,0.0003688,70.0,118.7358,278.8723,199.5749,-0.005715,-0.01010259,0.0,0 STARLINK-5065,1 55641U 23021P   23059.91667824 -.01010259  00000-0 -57150-2 0  9991,2 55641  70.0000 118.7358 0003688 278.8723 199.5749 15.81378305  1304,6704.679,91.06,329.017,324.071,0.0
55641.0,STARLINK-5065,PAYLOAD,2023-03-01 14:00:01,15.7992146,0.0003691,70.0003,116.8319,266.8719,43.9651,-0.0057002,-0.009489,0.0,0 STARLINK-5065,1 55641U 23021P   23060.58334491 -.00948900  00000-0 -57002-2 0  9995,2 55641  70.0003 116.8319 0003691 266.8719  43.9651 15.79921460  2396,6708.8,91.144,333.141,328.189,0.0
55641.0,STARLINK-5065,PAYLOAD,2023-03-01 22:00:00,15.7924613,0.0003698,69.9997,115.8807,279.9868,125.7513,-0.0061855,-0.00993104,0.0,0 STARLINK-5065,1 55641U 23021P   23060.91667824 -.00993104  00000-0 -61855-2 0  9998,2 55641  69.9997 115.8807 0003698 279.9868 125.7513 15.79246130  1303,6710.712,91.183,335.059,330.096,0.0
55641.0,STARLINK-5065,PAYLOAD,2023-03-02 06:00:00,15.78558653,0.0003549,69.9999,114.9309,276.4157,223.3796,-0.0065583,-0.01017456,0.0,0 STARLINK-5065,1 55641U 23021P   23061.25001157 -.01017456  00000-0 -65583-2 0  9997,2 55641  69.9999 114.9309 0003549 276.4157 223.3796 15.78558653  2506,6712.661,91.222,336.908,332.143,0.0
55641.0,STARLINK-5065,PAYLOAD,2023-03-02 20:00:01,15.77291603,0.0003436,69.9999,113.2718,270.3952,301.9924,-0.0066443,-0.00978207,0.0,0 STARLINK-5065,1 55641U 23021P   23061.83334491 -.00978207  00000-0 -66443-2 0  9996,2 55641  69.9999 113.2718 0003436 270.3952 301.9924 15.77291603  1304,6716.255,91.296,340.428,335.812,0.0
55641.0,STARLINK-5065,PAYLOAD,2023-03-03 12:00:00,15.75875823,0.0003672,70.0002,111.3789,279.8244,115.1886,-0.0070333,-0.00973075,0.0,0 STARLINK-5065,1 55641U 23021P   23062.50001157 -.00973075  00000-0 -70333-2 0  9992,2 55641  70.0002 111.3789 0003672 279.8244 115.1886 15.75875823  2706,6720.277,91.378,344.61,339.674,0.0
55641.0,STARLINK-5065,PAYLOAD,2023-03-03 14:00:01,15.75762126,0.0003532,69.9995,111.1424,273.8597,233.7116,-0.0077264,-0.01071564,0.0,0 STARLINK-5065,1 55641U 23021P   23062.58334491 -.01071564  00000-0 -77264-2 0  9993,2 55641  69.9995 111.1424 0003532 273.8597 233.7116 15.75762126  1307,6720.6,91.384,344.839,340.092,0.0
